{"type": "FeatureCollection", "features": [{"type": "Feature", "properties": {"featurecla": "Admin-1 states provinces", "scalerank": 5, "adm1_code": "COL-1342", "diss_me": 1342, "iso_3166_2": "CO-SAP", "wikipedia": null, "iso_a2": "CO", "adm0_sr": 6, "name": "San Andr\u00e9s y Providencia", "name_alt": "Saint Andrew and Providence", "name_local": null, "type": "Departamento", "type_en": "Department", "code_local": null, "code_hasc": "CO.SA", "note": null, "hasc_maybe": null, "region": null, "region_cod": null, "provnum_ne": 1, "gadm_level": 1, "check_me": 10, "datarank": 5, "abbrev": null, "postal": "SA", "area_sqkm": 0, "sameascity": -99, "labelrank": 5, "name_len": 24, "mapcolor9": 3, "mapcolor13": 1, "fips": "CO25", "fips_alt": "CO25", "woe_id": 2345070, "woe_label": "San Andres y Providencia, CO, Colombia", "woe_name": "San Andr\u00e9s y Providencia", "latitude": 12.5429, "longitude": -81.7049, "sov_a3": "COL", "adm0_a3": "COL", "adm0_label": 2, "admin": "Colombia", "geonunit": "Colombia", "gu_a3": "COL", "gn_id": 3670205, "gn_name": "Providencia y Santa Catalina, Departamento de Archipielago de San Andres", "gns_id": -597131, "gns_name": "Archipielago de San Andres, Providencia y Santa Catalina, Departamento de", "gn_level": 0, "gn_region": null, "gn_a1_code": "CO.25", "region_sub": null, "sub_code": null, "gns_level": 1, "gns_lang": "por", "gns_adm1": "CO25", "gns_region": null, "min_label": 6.7, "max_label": 11, "min_zoom": 6.7, "wikidataid": "Q26855", "name_ar": "\u0625\u062f\u0627\u0631\u0629 \u0623\u0631\u062e\u0628\u064a\u0644 \u0633\u0627\u0646 \u0623\u0646\u062f\u0631\u064a\u0633", "name_bn": "\u09a6\u09cd\u09ac\u09c0\u09aa\u09aa\u09c1\u099e\u09cd\u099c \u09b8\u09c7\u09a8\u09cd\u099f \u0986\u09a8\u09cd\u09a1\u09cd\u09b0\u09c7\u099c", "name_de": "San Andr\u00e9s und Providencia", "name_en": "Archipelago of Saint Andr\u00e9ws", "name_es": "Archipi\u00e9lago de San Andr\u00e9s", "name_fr": "Archipel de San Andr\u00e9s", "name_el": "\u0394\u03b9\u03b1\u03bc\u03ad\u03c1\u03b9\u03c3\u03bc\u03b1 \u0386\u03b3\u03b9\u03bf\u03c5 \u0391\u03bd\u03b4\u03c1\u03ad\u03b1 \u03ba\u03b1\u03b9 \u03a0\u03c1\u03bf\u03b2\u03b9\u03bd\u03c4\u03ad\u03bd\u03c3\u03b9\u03b1\u03c2", "name_hi": "\u0938\u0947\u0902\u091f \u090f\u0902\u0921\u094d\u0930\u0942\u0938", "name_hu": "San Andr\u00e9s y Providencia", "name_id": "Departemen San Andr\u00e9s dan Providencia", "name_it": "dipartimento dell'Arcipelago di San Andr\u00e9s", "name_ja": "\u30b5\u30f3\u30fb\u30a2\u30f3\u30c9\u30ec\u30b9\u30fb\u30a4\u30fb\u30d7\u30ed\u30d3\u30c7\u30f3\u30b7\u30a2\u770c", "name_ko": "\uc0b0\uc548\ub4dc\ub808\uc2a4\uc774\ud504\ub85c\ube44\ub374\uc2dc\uc544", "name_nl": "San Andr\u00e9s en Providencia", "name_pl": "San Andr\u00e9s i Providencia", "name_pt": "Santo Andr\u00e9", "name_ru": "\u0421\u0430\u043d-\u0410\u043d\u0434\u0440\u0435\u0441-\u0438-\u041f\u0440\u043e\u0432\u0438\u0434\u0435\u043d\u0441\u0438\u044f", "name_sv": "San Andr\u00e9s och Providencia", "name_tr": "San Andr\u00e9s", "name_vi": "Archipelago \u1edf Saint Andr\u00e9ws", "name_zh": "\u8056\u5b89\u5fb7\u5217\u65af-\u666e\u7f85\u7dad\u767b\u897f\u4e9e\u548c\u8056\u5361\u5854\u5229\u5a1c\u7fa4\u5cf6\u7701", "ne_id": 1159310191, "name_he": "\u05e1\u05df \u05d0\u05e0\u05d3\u05e8\u05e1 \u05d5\u05e4\u05e8\u05d5\u05d1\u05d9\u05d3\u05e0\u05e1\u05d9\u05d4", "name_uk": "\u0421\u0430\u043d-\u0410\u043d\u0434\u0440\u0435\u0441 \u0456 \u041f\u0440\u043e\u0432\u0456\u0434\u0435\u043d\u0441\u0456\u044f", "name_ur": "\u0645\u062c\u0645\u0648\u0639\u06c1 \u0627\u0644\u062c\u0632\u0627\u0626\u0631 \u0633\u0627\u0646 \u0627\u06cc\u0646\u0688\u0631\u06cc\u0633\u060c \u067e\u0631\u0648\u0648\u0688\u06cc\u0646\u0633\u06cc\u0627 \u0648 \u0633\u0627\u0646\u062a\u0627 \u06a9\u0627\u062a\u0627\u0644\u06cc\u0646\u0627", "name_fa": "\u0645\u062c\u0645\u0639\u0627\u0644\u062c\u0632\u0627\u06cc\u0631 \u0633\u0646 \u0622\u0646\u062f\u0631\u0633\u060c \u067e\u0631\u0648\u0648\u06cc\u062f\u0646\u0633\u06cc\u0627 \u0648 \u0633\u0627\u0646\u062a\u0627 \u06a9\u0627\u062a\u0627\u0644\u06cc\u0646\u0627", "name_zht": "\u8056\u5b89\u5fb7\u5217\u65af-\u666e\u7f85\u7dad\u767b\u897f\u4e9e\u548c\u8056\u5361\u5854\u5229\u5a1c\u7fa4\u5cf6\u7701", "FCLASS_ISO": null, "FCLASS_US": null, "FCLASS_FR": null, "FCLASS_RU": null, "FCLASS_ES": null, "FCLASS_CN": null, "FCLASS_TW": null, "FCLASS_IN": null, "FCLASS_NP": null, "FCLASS_PK": null, "FCLASS_DE": null, "FCLASS_GB": null, "FCLASS_BR": null, "FCLASS_IL": null, "FCLASS_PS": null, "FCLASS_SA": null, "FCLASS_EG": null, "FCLASS_MA": null, "FCLASS_PT": null, "FCLASS_AR": null, "FCLASS_JP": null, "FCLASS_KO": null, "FCLASS_VN": null, "FCLASS_TR": null, "FCLASS_ID": null, "FCLASS_PL": null, "FCLASS_GR": null, "FCLASS_IT": null, "FCLASS_NL": null, "FCLASS_SE": null, "FCLASS_BD": null, "FCLASS_UA": null, "FCLASS_TLC": null}, "bbox": [-81.723704, 12.502427, -80.089345, 13.578355], "geometry": {"type": "MultiPolygon", "coordinates": [[[[-81.711497, 12.522935], [-81.719797, 12.543158], [-81.716949, 12.563218], [-81.70637, 12.580308], [-81.691029, 12.591254], [-81.686391, 12.580064], [-81.704742, 12.504462], [-81.717397, 12.502427], [-81.723704, 12.511542], [-81.711497, 12.522935]]], [[[-81.382639, 13.319159], [-81.386138, 13.341457], [-81.378733, 13.362698], [-81.365346, 13.373969], [-81.351389, 13.366197], [-81.346303, 13.3487], [-81.352162, 13.334174], [-81.365346, 13.323879], [-81.382639, 13.319159]]], [[[-80.089915, 13.578355], [-80.089915, 13.577704], [-80.089345, 13.577867], [-80.089426, 13.57685], [-80.090403, 13.576606], [-80.090403, 13.577297], [-80.090891, 13.577094], [-80.090891, 13.57803], [-80.089915, 13.578355]]]]}}, {"type": "Feature", "properties": {"featurecla": "Admin-1 states provinces", "scalerank": 11, "adm1_code": "COL+99?", "diss_me": 10037, "iso_3166_2": "CO-X01~", "wikipedia": null, "iso_a2": "CO", "adm0_sr": 6, "name": null, "name_alt": null, "name_local": null, "type": null, "type_en": null, "code_local": null, "code_hasc": "CO.X01~", "note": "COL-99 (Colombia minor island)", "hasc_maybe": null, "region": null, "region_cod": null, "provnum_ne": 0, "gadm_level": 0, "check_me": 0, "datarank": 11, "abbrev": null, "postal": null, "area_sqkm": 0, "sameascity": -99, "labelrank": 20, "name_len": 0, "mapcolor9": 3, "mapcolor13": 1, "fips": null, "fips_alt": null, "woe_id": -99, "woe_label": null, "woe_name": null, "latitude": 3.97794, "longitude": -81.5928, "sov_a3": "COL", "adm0_a3": "COL", "adm0_label": 2, "admin": "Colombia", "geonunit": "Colombia", "gu_a3": "COL", "gn_id": 0, "gn_name": null, "gns_id": 0, "gns_name": null, "gn_level": 0, "gn_region": null, "gn_a1_code": "CO.", "region_sub": null, "sub_code": null, "gns_level": 0, "gns_lang": null, "gns_adm1": null, "gns_region": null, "min_label": 18, "max_label": 18, "min_zoom": 6.7, "wikidataid": null, "name_ar": null, "name_bn": null, "name_de": null, "name_en": null, "name_es": null, "name_fr": null, "name_el": null, "name_hi": null, "name_hu": null, "name_id": null, "name_it": null, "name_ja": null, "name_ko": null, "name_nl": null, "name_pl": null, "name_pt": null, "name_ru": null, "name_sv": null, "name_tr": null, "name_vi": null, "name_zh": null, "ne_id": 1159315631, "name_he": null, "name_uk": null, "name_ur": null, "name_fa": null, "name_zht": null, "FCLASS_ISO": null, "FCLASS_US": null, "FCLASS_FR": null, "FCLASS_RU": null, "FCLASS_ES": null, "FCLASS_CN": null, "FCLASS_TW": null, "FCLASS_IN": null, "FCLASS_NP": null, "FCLASS_PK": null, "FCLASS_DE": null, "FCLASS_GB": null, "FCLASS_BR": null, "FCLASS_IL": null, "FCLASS_PS": null, "FCLASS_SA": null, "FCLASS_EG": null, "FCLASS_MA": null, "FCLASS_PT": null, "FCLASS_AR": null, "FCLASS_JP": null, "FCLASS_KO": null, "FCLASS_VN": null, "FCLASS_TR": null, "FCLASS_ID": null, "FCLASS_PL": null, "FCLASS_GR": null, "FCLASS_IT": null, "FCLASS_NL": null, "FCLASS_SE": null, "FCLASS_BD": null, "FCLASS_UA": null, "FCLASS_TLC": null}, "bbox": [-81.616322, 3.95897, -81.578725, 3.992377], "geometry": {"type": "Polygon", "coordinates": [[[-81.611724, 3.95897], [-81.615305, 3.96133], [-81.616322, 3.963813], [-81.614654, 3.969184], [-81.609853, 3.974921], [-81.604115, 3.976874], [-81.602406, 3.97956], [-81.60143, 3.988349], [-81.596181, 3.991197], [-81.590566, 3.990465], [-81.585194, 3.992377], [-81.582265, 3.991523], [-81.578725, 3.978176], [-81.580312, 3.97602], [-81.584869, 3.974595], [-81.589019, 3.970282], [-81.594228, 3.970771], [-81.606313, 3.960191], [-81.611724, 3.95897]]]}}]}